[{"OBJECT_NAME":"NORSAT 2","OBJECT_ID":"2017-042D","EPOCH":"2026-03-09T22:36:44.019360","MEAN_MOTION":15.19710516,"ECCENTRICITY":0.00104189,"INCLINATION":97.3979,"RA_OF_ASC_NODE":244.1384,"ARG_OF_PERICENTER":44.3971,"MEAN_ANOMALY":315.8097,"EPHEMERIS_TYPE":0,"CLASSIFICATION_TYPE":"U","NORAD_CAT_ID":42828,"ELEMENT_SET_NO":999,"REV_AT_EPOCH":47265,"BSTAR":0.00070065492,"MEAN_MOTION_DOT":0.00014937,"MEAN_MOTION_DDOT":0},{"OBJECT_NAME":"STARLINK-5387","OBJECT_ID":"2022-177Y","EPOCH":"2026-03-09T22:00:01.999584","MEAN_MOTION":15.16803473,"ECCENTRICITY":0.00020851,"INCLINATION":43.0001,"RA_OF_ASC_NODE":131.0823,"ARG_OF_PERICENTER":258.7252,"MEAN_ANOMALY":19.3331,"EPHEMERIS_TYPE":0,"CLASSIFICATION_TYPE":"U","NORAD_CAT_ID":54842,"ELEMENT_SET_NO":999,"REV_AT_EPOCH":578,"BSTAR":0.060899365,"MEAN_MOTION_DOT":0.01322592,"MEAN_MOTION_DDOT":0}]
